start=new Date('2022-03-08T00:00:00.000Z').valueOf();
sats=[{"ARG_OF_PERICENTER":"64.0509","PERIOD":"91.534","MEAN_ANOMALY":"173.7037","FILE":"3349821","MEAN_MOTION_DDOT":"0.0000000000000","OBJECT_TYPE":"PAYLOAD","RA_OF_ASC_NODE":"92.7454","MEAN_ELEMENT_THEORY":"SGP4","CENTER_NAME":"EARTH","INCLINATION":"53.2203","OBJECT_NAME":"STARLINK-3616","CLASSIFICATION_TYPE":"U","TLE_LINE2":"2 51782  53.2203  92.7454 0001716  64.0509 173.7037 15.73192950  2103","BSTAR":"0.00066280000000","EPHEMERIS_TYPE":"0","RCS_SIZE":"LARGE","APOAPSIS":"350.935","TIME_SYSTEM":"UTC","TLE_LINE1":"1 51782U 22017Q   22066.91667824  .00093413  00000-0  66280-3 0  9999","COUNTRY_CODE":"US","GP_ID":"198191378","ECCENTRICITY":"0.00017160","EPOCH":"2022-03-07T22:00:00.999936","NORAD_CAT_ID":"51782","DECAY_DATE":null,"PERIAPSIS":"348.626","REV_AT_EPOCH":"210","MEAN_MOTION":"15.73192950","ELEMENT_SET_NO":"999","SITE":"AFWTR","LAUNCH_DATE":"2022-02-25","REF_FRAME":"TEME","SEMIMAJOR_AXIS":"6727.915","OBJECT_ID":"2022-017Q","MEAN_MOTION_DOT":"0.00093413"},{"OBJECT_TYPE":"PAYLOAD","RA_OF_ASC_NODE":"92.7494","MEAN_MOTION_DDOT":"0.0000000000000","FILE":"3349821","MEAN_ANOMALY":"177.1734","PERIOD":"91.534","ARG_OF_PERICENTER":"58.3340","RCS_SIZE":"LARGE","EPHEMERIS_TYPE":"0","BSTAR":"-0.00012155000000","TLE_LINE2":"2 51783  53.2199  92.7494 0001303  58.3340 177.1734 15.73182175  2114","CLASSIFICATION_TYPE":"U","INCLINATION":"53.2199","OBJECT_NAME":"STARLINK-3628","MEAN_ELEMENT_THEORY":"SGP4","CENTER_NAME":"EARTH","EPOCH":"2022-03-07T22:00:00.999936","ECCENTRICITY":"0.00013030","COUNTRY_CODE":"US","TLE_LINE1":"1 51783U 22017R   22066.91667824 -.00017629  00000-0 -12155-3 0  9999","GP_ID":"198191817","TIME_SYSTEM":"UTC","APOAPSIS":"350.688","OBJECT_ID":"2022-017R","MEAN_MOTION_DOT":"-0.00017629","REF_FRAME":"TEME","SEMIMAJOR_AXIS":"6727.946","LAUNCH_DATE":"2022-02-25","SITE":"AFWTR","ELEMENT_SET_NO":"999","MEAN_MOTION":"15.73182175","PERIAPSIS":"348.934","REV_AT_EPOCH":"211","DECAY_DATE":null,"NORAD_CAT_ID":"51783"},{"CLASSIFICATION_TYPE":"U","CENTER_NAME":"EARTH","MEAN_ELEMENT_THEORY":"SGP4","INCLINATION":"53.2203","OBJECT_NAME":"STARLINK-3632","BSTAR":"0.00011728000000","EPHEMERIS_TYPE":"0","RCS_SIZE":"LARGE","TLE_LINE2":"2 51784  53.2203  92.7436 0001230  41.2408 197.4219 15.73172126  2109","ARG_OF_PERICENTER":"41.2408","PERIOD":"91.535","MEAN_ANOMALY":"197.4219","MEAN_MOTION_DDOT":"0.0000000000000","RA_OF_ASC_NODE":"92.7436","OBJECT_TYPE":"PAYLOAD","FILE":"3349821","REV_AT_EPOCH":"210","PERIAPSIS":"349.012","NORAD_CAT_ID":"51784","DECAY_DATE":null,"MEAN_MOTION_DOT":"0.00015851","OBJECT_ID":"2022-017S","ELEMENT_SET_NO":"999","MEAN_MOTION":"15.73172126","SITE":"AFWTR","LAUNCH_DATE":"2022-02-25","SEMIMAJOR_AXIS":"6727.975","REF_FRAME":"TEME","APOAPSIS":"350.667","TIME_SYSTEM":"UTC","ECCENTRICITY":"0.00012300","EPOCH":"2022-03-07T22:00:00.999936","COUNTRY_CODE":"US","TLE_LINE1":"1 51784U 22017S   22066.91667824  .00015851  00000-0  11728-3 0  9998","GP_ID":"198192037"},{"TLE_LINE1":"1 51785U 22017T   22066.91667824 -.00015307  00000-0 -10480-3 0  9991","COUNTRY_CODE":"US","GP_ID":"198191598","ECCENTRICITY":"0.00012180","EPOCH":"2022-03-07T22:00:00.999936","TIME_SYSTEM":"UTC","APOAPSIS":"350.552","LAUNCH_DATE":"2022-02-25","REF_FRAME":"TEME","SEMIMAJOR_AXIS":"6727.867","MEAN_MOTION":"15.73209832","ELEMENT_SET_NO":"999","SITE":"AFWTR","OBJECT_ID":"2022-017T","MEAN_MOTION_DOT":"-0.00015307","DECAY_DATE":null,"NORAD_CAT_ID":"51785","PERIAPSIS":"348.913","REV_AT_EPOCH":"210","FILE":"3349821","OBJECT_TYPE":"PAYLOAD","RA_OF_ASC_NODE":"92.7467","MEAN_MOTION_DDOT":"0.0000000000000","PERIOD":"91.533","MEAN_ANOMALY":"195.1130","ARG_OF_PERICENTER":"41.6540","TLE_LINE2":"2 51785  53.2199  92.7467 0001218  41.6540 195.1130 15.73209832  2107","EPHEMERIS_TYPE":"0","RCS_SIZE":"LARGE","BSTAR":"-0.00010480000000","CENTER_NAME":"EARTH","MEAN_ELEMENT_THEORY":"SGP4","OBJECT_NAME":"STARLINK-3646","INCLINATION":"53.2199","CLASSIFICATION_TYPE":"U"},{"OBJECT_TYPE":"PAYLOAD","RA_OF_ASC_NODE":"92.7411","MEAN_MOTION_DDOT":"0.0000000000000","FILE":"3349821","MEAN_ANOMALY":"185.9687","PERIOD":"91.537","ARG_OF_PERICENTER":"54.0096","RCS_SIZE":"LARGE","EPHEMERIS_TYPE":"0","BSTAR":"0.00053504000000","TLE_LINE2":"2 51786  53.2205  92.7411 0001351  54.0096 185.9687 15.73133923  2108","CLASSIFICATION_TYPE":"U","INCLINATION":"53.2205","OBJECT_NAME":"STARLINK-3638","MEAN_ELEMENT_THEORY":"SGP4","CENTER_NAME":"EARTH","EPOCH":"2022-03-07T22:00:00.999936","ECCENTRICITY":"0.00013510","TLE_LINE1":"1 51786U 22017U   22066.91667824  .00074928  00000-0  53504-3 0  9998","COUNTRY_CODE":"US","GP_ID":"198191708","TIME_SYSTEM":"UTC","APOAPSIS":"350.858","MEAN_MOTION_DOT":"0.00074928","OBJECT_ID":"2022-017U","REF_FRAME":"TEME","SEMIMAJOR_AXIS":"6728.084","LAUNCH_DATE":"2022-02-25","SITE":"AFWTR","ELEMENT_SET_NO":"999","MEAN_MOTION":"15.73133923","PERIAPSIS":"349.040","REV_AT_EPOCH":"210","DECAY_DATE":null,"NORAD_CAT_ID":"51786"},{"CLASSIFICATION_TYPE":"U","MEAN_ELEMENT_THEORY":"SGP4","CENTER_NAME":"EARTH","OBJECT_NAME":"STARLINK-3619","INCLINATION":"53.2200","BSTAR":"-0.00005526700000","EPHEMERIS_TYPE":"0","RCS_SIZE":"LARGE","TLE_LINE2":"2 51787  53.2200  92.7456 0001305  36.2733 201.1440 15.73182158  2104","ARG_OF_PERICENTER":"36.2733","PERIOD":"91.534","MEAN_ANOMALY":"201.1440","MEAN_MOTION_DDOT":"0.0000000000000","OBJECT_TYPE":"PAYLOAD","RA_OF_ASC_NODE":"92.7456","FILE":"3349821","PERIAPSIS":"348.933","REV_AT_EPOCH":"210","NORAD_CAT_ID":"51787","DECAY_DATE":null,"MEAN_MOTION_DOT":"-0.00008362","OBJECT_ID":"2022-017V","MEAN_MOTION":"15.73182158","ELEMENT_SET_NO":"999","SITE":"AFWTR","LAUNCH_DATE":"2022-02-25","REF_FRAME":"TEME","SEMIMAJOR_AXIS":"6727.946","APOAPSIS":"350.689","TIME_SYSTEM":"UTC","ECCENTRICITY":"0.00013050","EPOCH":"2022-03-07T22:00:00.999936","GP_ID":"198191489","TLE_LINE1":"1 51787U 22017V   22066.91667824 -.00008362  00000-0 -55267-4 0  9999","COUNTRY_CODE":"US"},{"APOAPSIS":"350.489","TIME_SYSTEM":"UTC","COUNTRY_CODE":"US","TLE_LINE1":"1 51788U 22017W   22066.91667824 -.00048807  00000-0 -34506-3 0  9990","GP_ID":"198192148","EPOCH":"2022-03-07T22:00:00.999936","ECCENTRICITY":"0.00011690","NORAD_CAT_ID":"51788","DECAY_DATE":null,"REV_AT_EPOCH":"211","PERIAPSIS":"348.916","SITE":"AFWTR","MEAN_MOTION":"15.73220254","ELEMENT_SET_NO":"999","REF_FRAME":"TEME","SEMIMAJOR_AXIS":"6727.837","LAUNCH_DATE":"2022-02-25","OBJECT_ID":"2022-017W","MEAN_MOTION_DOT":"-0.00048807","ARG_OF_PERICENTER":"49.9287","MEAN_ANOMALY":"191.9520","PERIOD":"91.532","FILE":"3349821","MEAN_MOTION_DDOT":"0.0000000000000","OBJECT_TYPE":"PAYLOAD","RA_OF_ASC_NODE":"92.7372","OBJECT_NAME":"STARLINK-3641","INCLINATION":"53.2205","MEAN_ELEMENT_THEORY":"SGP4","CENTER_NAME":"EARTH","CLASSIFICATION_TYPE":"U","TLE_LINE2":"2 51788  53.2205  92.7372 0001169  49.9287 191.9520 15.73220254  2116","BSTAR":"-0.00034506000000","RCS_SIZE":"LARGE","EPHEMERIS_TYPE":"0"},{"INCLINATION":"53.2201","OBJECT_NAME":"STARLINK-3639","CENTER_NAME":"EARTH","MEAN_ELEMENT_THEORY":"SGP4","CLASSIFICATION_TYPE":"U","TLE_LINE2":"2 51789  53.2201  92.7420 0001359  56.5908 182.7377 15.73159675  2107","RCS_SIZE":"LARGE","EPHEMERIS_TYPE":"0","BSTAR":"0.00017111000000","MEAN_ANOMALY":"182.7377","PERIOD":"91.536","ARG_OF_PERICENTER":"56.5908","FILE":"3349821","RA_OF_ASC_NODE":"92.7420","OBJECT_TYPE":"PAYLOAD","MEAN_MOTION_DDOT":"0.0000000000000","DECAY_DATE":null,"NORAD_CAT_ID":"51789","PERIAPSIS":"348.961","REV_AT_EPOCH":"210","SEMIMAJOR_AXIS":"6728.010","REF_FRAME":"TEME","LAUNCH_DATE":"2022-02-25","SITE":"AFWTR","MEAN_MOTION":"15.73159675","ELEMENT_SET_NO":"999","OBJECT_ID":"2022-017X","MEAN_MOTION_DOT":"0.00023420","TIME_SYSTEM":"UTC","APOAPSIS":"350.789","TLE_LINE1":"1 51789U 22017X   22066.91667824  .00023420  00000-0  17111-3 0  9996","COUNTRY_CODE":"US","GP_ID":"198191928","EPOCH":"2022-03-07T22:00:00.999936","ECCENTRICITY":"0.00013590"},{"DECAY_DATE":null,"NORAD_CAT_ID":"51790","REV_AT_EPOCH":"210","PERIAPSIS":"349.002","LAUNCH_DATE":"2022-02-25","REF_FRAME":"TEME","SEMIMAJOR_AXIS":"6727.884","ELEMENT_SET_NO":"999","MEAN_MOTION":"15.73204085","SITE":"AFWTR","OBJECT_ID":"2022-017Y","MEAN_MOTION_DOT":"0.00019345","TIME_SYSTEM":"UTC","APOAPSIS":"350.495","TLE_LINE1":"1 51790U 22017Y   22066.91667824  .00019345  00000-0  14191-3 0  9994","COUNTRY_CODE":"US","GP_ID":"198191379","ECCENTRICITY":"0.00011090","EPOCH":"2022-03-07T22:00:00.999936","MEAN_ELEMENT_THEORY":"SGP4","CENTER_NAME":"EARTH","INCLINATION":"53.2184","OBJECT_NAME":"STARLINK-3631","CLASSIFICATION_TYPE":"U","TLE_LINE2":"2 51790  53.2184  92.7360 0001109  55.4112 187.0780 15.73204085  2102","EPHEMERIS_TYPE":"0","RCS_SIZE":"LARGE","BSTAR":"0.00014191000000","PERIOD":"91.533","MEAN_ANOMALY":"187.0780","ARG_OF_PERICENTER":"55.4112","FILE":"3349821","OBJECT_TYPE":"PAYLOAD","RA_OF_ASC_NODE":"92.7360","MEAN_MOTION_DDOT":"0.0000000000000"},{"BSTAR":"0.00060534000000","RCS_SIZE":"LARGE","EPHEMERIS_TYPE":"0","TLE_LINE2":"2 51791  53.2201  92.7393 0001333  48.7563 191.8381 15.73158434  2109","CLASSIFICATION_TYPE":"U","INCLINATION":"53.2201","OBJECT_NAME":"STARLINK-3602","MEAN_ELEMENT_THEORY":"SGP4","CENTER_NAME":"EARTH","MEAN_MOTION_DDOT":"0.0000000000000","RA_OF_ASC_NODE":"92.7393","OBJECT_TYPE":"PAYLOAD","FILE":"3349821","ARG_OF_PERICENTER":"48.7563","MEAN_ANOMALY":"191.8381","PERIOD":"91.536","OBJECT_ID":"2022-017Z","MEAN_MOTION_DOT":"0.00085047","SITE":"AFWTR","ELEMENT_SET_NO":"999","MEAN_MOTION":"15.73158434","REF_FRAME":"TEME","SEMIMAJOR_AXIS":"6728.014","LAUNCH_DATE":"2022-02-25","PERIAPSIS":"348.982","REV_AT_EPOCH":"210","NORAD_CAT_ID":"51791","DECAY_DATE":null,"EPOCH":"2022-03-07T22:00:00.999936","ECCENTRICITY":"0.00013330","COUNTRY_CODE":"US","TLE_LINE1":"1 51791U 22017Z   22066.91667824  .00085047  00000-0  60534-3 0  9999","GP_ID":"198191818","APOAPSIS":"350.776","TIME_SYSTEM":"UTC"}];
